{"type": "FeatureCollection", "features": [ {"type": "Feature", "properties": {"norad_id": 43010, "name": "FENGYUN 3D", "group": "weather", "lat": 28.19669104395466, "lon": -47.593325468024766, "alt_km": 825.7002407185892, "timestamp": "2025-12-16T21:38:56.811946+00:00", "meta": {"OBJECT_NAME": "FENGYUN 3D", "OBJECT_ID": "2017-072A", "EPOCH": "2025-12-16T07:58:59.582784", "MEAN_MOTION": 14.19685615, "ECCENTRICITY": 0.00010904, "INCLINATION": 98.9888, "RA_OF_ASC_NODE": 316.6968, "ARG_OF_PERICENTER": 169.682, "MEAN_ANOMALY": 190.4378, "EPHEMERIS_TYPE": 0, "CLASSIFICATION_TYPE": "U", "NORAD_CAT_ID": 43010, "ELEMENT_SET_NO": 999, "REV_AT_EPOCH": 41904, "BSTAR": 0.00014684873, "MEAN_MOTION_DOT": 2.64e-06, "MEAN_MOTION_DDOT": 0}, "tle": {"line1": "1 43010U 17072A   25350.33263406  .00000264  00000+0  14685-3 0  9995", "line2": "2 43010  98.9888 316.6968 0001090 169.6820 190.4378 14.19685615419047"}}, "geometry": {"type": "Point", "coordinates": [-47.593325468024766, 28.19669104395466]}}, {"type": "Feature", "properties": {"norad_id": 43013, "name": "NOAA 20 (JPSS-1)", "group": "weather", "lat": 1.2737786486051281, "lon": 107.34963225039562, "alt_km": 829.9203322084686, "timestamp": "2025-12-16T21:38:56.811957+00:00", "meta": {"OBJECT_NAME": "NOAA 20 (JPSS-1)", "OBJECT_ID": "2017-073A", "EPOCH": "2025-12-16T07:16:38.756640", "MEAN_MOTION": 14.19526703, "ECCENTRICITY": 0.00021613, "INCLINATION": 98.7602, "RA_OF_ASC_NODE": 286.561, "ARG_OF_PERICENTER": 82.0852, "MEAN_ANOMALY": 278.057, "EPHEMERIS_TYPE": 0, "CLASSIFICATION_TYPE": "U", "NORAD_CAT_ID": 43013, "ELEMENT_SET_NO": 999, "REV_AT_EPOCH": 41852, "BSTAR": 5.6991319e-05, "MEAN_MOTION_DOT": 7.6e-07, "MEAN_MOTION_DDOT": 0}, "tle": {"line1": "1 43013U 17073A   25350.30322635  .00000076  00000+0  56991-4 0  9994", "line2": "2 43013  98.7602 286.5610 0002161  82.0852 278.0570 14.19526703418525"}}, "geometry": {"type": "Point", "coordinates": [107.34963225039562, 1.2737786486051281]}}, {"type": "Feature", "properties": {"norad_id": 43226, "name": "GOES 17", "group": "weather", "lat": -0.3773288942591349, "lon": -38.96166862080309, "alt_km": 35776.42169964912, "timestamp": "2025-12-16T21:38:56.811971+00:00", "meta": {"OBJECT_NAME": "GOES 17", "OBJECT_ID": "2018-022A", "EPOCH": "2025-12-16T08:14:38.704128", "MEAN_MOTION": 1.00271401, "ECCENTRICITY": 0.00031213, "INCLINATION": 0.4678, "RA_OF_ASC_NODE": 89.1494, "ARG_OF_PERICENTER": 190.2601, "MEAN_ANOMALY": 199.9917, "EPHEMERIS_TYPE": 0, "CLASSIFICATION_TYPE": "U", "NORAD_CAT_ID": 43226, "ELEMENT_SET_NO": 999, "REV_AT_EPOCH": 2859, "BSTAR": 0, "MEAN_MOTION_DOT": -1.59e-06, "MEAN_MOTION_DDOT": 0}, "tle": {"line1": "1 43226U 18022A   25350.34350352 -.00000159  00000+0  00000+0 0  9994", "line2": "2 43226   0.4678  89.1494 0003121 190.2601 199.9917  1.00271401 28590"}}, "geometry": {"type": "Point", "coordinates": [-38.96166862080309, -0.3773288942591349]}}, {"type": "Feature", "properties": {"norad_id": 43491, "name": "FENGYUN 2H", "group": "weather", "lat": 1.9344920432055643, "lon": 129.81522953497523, "alt_km": 35791.155425381854, "timestamp": "2025-12-16T21:38:56.811983+00:00", "meta": {"OBJECT_NAME": "FENGYUN 2H", "OBJECT_ID": "2018-050A", "EPOCH": "2025-12-16T01:45:02.684736", "MEAN_MOTION": 1.00271356, "ECCENTRICITY": 0.00025418, "INCLINATION": 2.5595, "RA_OF_ASC_NODE": 81.2949, "ARG_OF_PERICENTER": 167.2135, "MEAN_ANOMALY": 302.0778, "EPHEMERIS_TYPE": 0, "CLASSIFICATION_TYPE": "U", "NORAD_CAT_ID": 43491, "ELEMENT_SET_NO": 999, "REV_AT_EPOCH": 2760, "BSTAR": 0, "MEAN_MOTION_DOT": -1.08e-06, "MEAN_MOTION_DDOT": 0}, "tle": {"line1": "1 43491U 18050A   25350.07294774 -.00000108  00000+0  00000+0 0  9998", "line2": "2 43491   2.5595  81.2949 0002541 167.2135 302.0778  1.00271356 27606"}}, "geometry": {"type": "Point", "coordinates": [129.81522953497523, 1.9344920432055643]}}, {"type": "Feature", "properties": {"norad_id": 43689, "name": "METOP-C", "group": "weather", "lat": -11.125157143581871, "lon": 50.33192825725734, "alt_km": 824.0017774614153, "timestamp": "2025-12-16T21:38:56.811995+00:00", "meta": {"OBJECT_NAME": "METOP-C", "OBJECT_ID": "2018-087A", "EPOCH": "2025-12-16T08:11:14.297280", "MEAN_MOTION": 14.21485761, "ECCENTRICITY": 0.00010805, "INCLINATION": 98.6927, "RA_OF_ASC_NODE": 48.0557, "ARG_OF_PERICENTER": 32.5784, "MEAN_ANOMALY": 327.546, "EPHEMERIS_TYPE": 0, "CLASSIFICATION_TYPE": "U", "NORAD_CAT_ID": 43689, "ELEMENT_SET_NO": 999, "REV_AT_EPOCH": 36885, "BSTAR": 7.9690735e-05, "MEAN_MOTION_DOT": 1.31e-06, "MEAN_MOTION_DDOT": 0}, "tle": {"line1": "1 43689U 18087A   25350.34113770  .00000131  00000+0  79691-4 0  9995", "line2": "2 43689  98.6927  48.0557 0001080  32.5784 327.5460 14.21485761368856"}}, "geometry": {"type": "Point", "coordinates": [50.33192825725734, -11.125157143581871]}}, {"type": "Feature", "properties": {"norad_id": 43823, "name": "GEO-KOMPSAT-2A", "group": "weather", "lat": 0.02809342929153014, "lon": 178.79404386603633, "alt_km": 35785.64810795891, "timestamp": "2025-12-16T21:38:56.812014+00:00", "meta": {"OBJECT_NAME": "GEO-KOMPSAT-2A", "OBJECT_ID": "2018-100A", "EPOCH": "2025-12-16T07:07:06.206304", "MEAN_MOTION": 1.00271835, "ECCENTRICITY": 4.993e-05, "INCLINATION": 0.0508, "RA_OF_ASC_NODE": 132.3973, "ARG_OF_PERICENTER": 330.4458, "MEAN_ANOMALY": 217.3998, "EPHEMERIS_TYPE": 0, "CLASSIFICATION_TYPE": "U", "NORAD_CAT_ID": 43823, "ELEMENT_SET_NO": 999, "REV_AT_EPOCH": 2579, "BSTAR": 0, "MEAN_MOTION_DOT": -3.2e-06, "MEAN_MOTION_DDOT": 0}, "tle": {"line1": "1 43823U 18100A   25350.29659961 -.00000320  00000+0  00000+0 0  9996", "line2": "2 43823   0.0508 132.3973 0000499 330.4458 217.3998  1.00271835 25791"}}, "geometry": {"type": "Point", "coordinates": [178.79404386603633, 0.02809342929153014]}}, {"type": "Feature", "properties": {"norad_id": 44387, "name": "METEOR-M2 2", "group": "weather", "lat": 72.56826233250897, "lon": -179.39191123280258, "alt_km": 803.0017697507792, "timestamp": "2025-12-16T21:38:56.812026+00:00", "meta": {"OBJECT_NAME": "METEOR-M2 2", "OBJECT_ID": "2019-038A", "EPOCH": "2025-12-16T07:40:11.541792", "MEAN_MOTION": 14.24293291, "ECCENTRICITY": 0.00014318, "INCLINATION": 98.8971, "RA_OF_ASC_NODE": 330.0924, "ARG_OF_PERICENTER": 139.9983, "MEAN_ANOMALY": 220.1301, "EPHEMERIS_TYPE": 0, "CLASSIFICATION_TYPE": "U", "NORAD_CAT_ID": 44387, "ELEMENT_SET_NO": 999, "REV_AT_EPOCH": 33526, "BSTAR": 5.7068085e-05, "MEAN_MOTION_DOT": 8.6e-07, "MEAN_MOTION_DDOT": 0}, "tle": {"line1": "1 44387U 19038A   25350.31957803  .00000086  00000+0  57068-4 0  9991", "line2": "2 44387  98.8971 330.0924 0001431 139.9983 220.1301 14.24293291335267"}}, "geometry": {"type": "Point", "coordinates": [-179.39191123280258, 72.56826233250897]}}, {"type": "Feature", "properties": {"norad_id": 47719, "name": "ARKTIKA-M 1", "group": "weather", "lat": 57.012780160565384, "lon": -147.653849673403, "alt_km": 32699.669167674063, "timestamp": "2025-12-16T21:38:56.812039+00:00", "meta": {"OBJECT_NAME": "ARKTIKA-M 1", "OBJECT_ID": "2021-016A", "EPOCH": "2025-12-16T01:33:46.454400", "MEAN_MOTION": 2.00630649, "ECCENTRICITY": 0.7205676, "INCLINATION": 63.179, "RA_OF_ASC_NODE": 83.5626, "ARG_OF_PERICENTER": 269.1378, "MEAN_ANOMALY": 15.5886, "EPHEMERIS_TYPE": 0, "CLASSIFICATION_TYPE": "U", "NORAD_CAT_ID": 47719, "ELEMENT_SET_NO": 999, "REV_AT_EPOCH": 3511, "BSTAR": 0, "MEAN_MOTION_DOT": -1.08e-06, "MEAN_MOTION_DDOT": 0}, "tle": {"line1": "1 47719U 21016A   25350.06512100 -.00000108  00000+0  00000+0 0  9996", "line2": "2 47719  63.1790  83.5626 7205676 269.1378  15.5886  2.00630649 35118"}}, "geometry": {"type": "Point", "coordinates": [-147.653849673403, 57.012780160565384]}}, {"type": "Feature", "properties": {"norad_id": 49008, "name": "FENGYUN 3E", "group": "weather", "lat": -1.8545377148678523, "lon": -8.340138741722933, "alt_km": 829.1372510048914, "timestamp": "2025-12-16T21:38:56.812053+00:00", "meta": {"OBJECT_NAME": "FENGYUN 3E", "OBJECT_ID": "2021-062A", "EPOCH": "2025-12-16T06:26:12.577632", "MEAN_MOTION": 14.19881506, "ECCENTRICITY": 6.074e-05, "INCLINATION": 98.7478, "RA_OF_ASC_NODE": 350.7479, "ARG_OF_PERICENTER": 237.8463, "MEAN_ANOMALY": 122.2654, "EPHEMERIS_TYPE": 0, "CLASSIFICATION_TYPE": "U", "NORAD_CAT_ID": 49008, "ELEMENT_SET_NO": 999, "REV_AT_EPOCH": 23062, "BSTAR": 0.00016193355, "MEAN_MOTION_DOT": 3e-06, "MEAN_MOTION_DDOT": 0}, "tle": {"line1": "1 49008U 21062A   25350.26820113  .00000300  00000+0  16193-3 0  9995", "line2": "2 49008  98.7478 350.7479 0000607 237.8463 122.2654 14.19881506230625"}}, "geometry": {"type": "Point", "coordinates": [-8.340138741722933, -1.8545377148678523]}}, {"type": "Feature", "properties": {"norad_id": 51850, "name": "GOES 18", "group": "weather", "lat": -0.0031928216541572607, "lon": -86.49256883825367, "alt_km": 35784.76787197037, "timestamp": "2025-12-16T21:38:56.812065+00:00", "meta": {"OBJECT_NAME": "GOES 18", "OBJECT_ID": "2022-021A", "EPOCH": "2025-12-16T07:57:38.784960", "MEAN_MOTION": 1.0027185, "ECCENTRICITY": 4.734e-05, "INCLINATION": 0.0136, "RA_OF_ASC_NODE": 96.7105, "ARG_OF_PERICENTER": 228.395, "MEAN_ANOMALY": 102.5304, "EPHEMERIS_TYPE": 0, "CLASSIFICATION_TYPE": "U", "NORAD_CAT_ID": 51850, "ELEMENT_SET_NO": 999, "REV_AT_EPOCH": 475, "BSTAR": 0, "MEAN_MOTION_DOT": 1.2e-06, "MEAN_MOTION_DDOT": 0}, "tle": {"line1": "1 51850U 22021A   25350.33169890  .00000120  00000+0  00000+0 0  9991", "line2": "2 51850   0.0136  96.7105 0000473 228.3950 102.5304  1.00271850  4757"}}, "geometry": {"type": "Point", "coordinates": [-86.49256883825367, -0.0031928216541572607]}}]}